SONATE                  
1 44400U 19038Q   24097.96530937  .00016711  00000+0  56442-3 0  9996
2 44400  97.7120  89.0753 0016976   7.6031 352.5463 15.30608435263170
LUCKY-7                 
1 44406U 19038W   24097.94520136  .00028715  00000+0  76650-3 0  9990
2 44406  97.7041  92.2607 0013477 356.8033   3.3122 15.37990795263393
BEESAT 9                
1 44412U 19038AC  24098.44224941  .00121352  00000+0  12697-2 0  9999
2 44412  97.6839  99.7574 0003570 352.5510   7.5695 15.64040107263669
JAISAT-1                
1 44419U 19038F   24097.94669906  .00108412  00000+0  11869-2 0  9996
2 44419  97.6831 100.2527 0003633 358.7171   1.4077 15.62921303263969
DUCHIFAT-3              
1 44854U 19089C   24098.41231030  .00010965  00000+0  60142-3 0  9995
2 44854  36.9575 117.8459 0009904 228.3560 131.6339 15.13597496237463
M2 PATHFINDER           
1 45727U 20037E   24097.92411600  .00002143  00000+0  19386-3 0  9991
2 45727  97.7741 274.7819 0011556   8.8187 351.3235 14.96451793205288
NETSAT-4                
1 46504U 20068U   24098.36714270  .00008648  00000+0  48954-3 0  9996
2 46504  97.7998  53.7211 0008264 237.7507 122.2923 15.13265704193457
NETSAT-3                
1 46505U 20068V   24098.39362527  .00008049  00000+0  46189-3 0  9997
2 46505  97.7975  53.3396 0007206 248.0165 112.0299 15.12808183193459
NETSAT-1                
1 46506U 20068W   24098.37448289  .00005972  00000+0  35620-3 0  9996
2 46506  97.7993  52.9381 0006074 262.0456  98.0085 15.11534621193425
NETSAT-2                
1 46507U 20068X   24097.85117726  .00008232  00000+0  46770-3 0  9998
2 46507  97.7984  52.8499 0005096 271.7693  88.2953 15.13169996193323
WILDTRACKCUBE-SIMBA     
1 47941U 21022K   24098.48308465  .00009602  00000+0  46052-3 0  9999
2 47941  97.4691 355.9775 0017491  38.1952 322.0518 15.18968894167727
BEESAT-6                
1 47957U 21022AB  24096.69720281  .00076814  00000+0  15736-2 0  9994
2 47957  97.4542   1.9403 0009980  31.9804 328.2048 15.45757491167787
SMOG-1                  
1 47964U 21022AJ  24097.96043238  .00072317  00000+0  14675-2 0  9998
2 47964  97.4716   6.2636 0007833  14.8410 345.3068 15.46074251167163
BCCSAT-1                
1 48041U 21022AK  24097.67181391  .00045504  00000+0  12203-2 0  9999
2 48041  97.4710   3.0126 0008228  16.4856 343.6655 15.37803411166906
BEESAT-5                
1 48083U 21022AM  24098.23499247  .00105477  00000+0  17660-2 0  9998
2 48083  97.4362   4.4009 0008334  30.8587 329.3153 15.51457423167256
BEESAT-7                
1 48084U 21022AN  24097.49196613  .00051580  00000+0  11403-2 0  9991
2 48084  97.4661   3.0533 0009667  22.1268 338.0395 15.43621896166641
BEESAT-8                
1 48085U 21022AP  24097.22391424  .00023728  00000+0  87914-3 0  9994
2 48085  97.4803 358.8165 0014492  32.9807 327.2333 15.27539821166877
LEDSAT                  
1 49069U 21073D   24097.65536334  .00013338  00000+0  58641-3 0  9992
2 49069  97.4436 169.4022 0021194 172.3917 187.7645 15.21810062145569
SITRO-AIS 5 (KATYS)     
1 57176U 23091L   24098.47941196  .00005767  00000+0  38805-3 0  9996
2 57176  97.6219 151.3162 0017895   8.3412 351.8109 15.06989323 42840
SITRO-AIS 6 (CHIRKIN)   
1 57192U 23091AC  24098.46744421  .00005601  00000+0  37641-3 0  9999
2 57192  97.6216 151.3246 0017703   8.8476 351.3060 15.07053250 42844
SITRO-AIS 8 (ANOKHIN)   
1 57193U 23091AD  24098.51435320  .00005741  00000+0  38352-3 0  9996
2 57193  97.6204 151.4099 0017411   8.8092 351.3438 15.07265774 42855
SITRO-AIS 7 (FARTUSHNIY)
1 57194U 23091AE  24098.47052628  .00005414  00000+0  36434-3 0  9994
2 57194  97.6214 151.3153 0017589   9.3800 350.7753 15.07014528 42847
SITRO-AIS 10 (BURDAEV)  
1 57199U 23091AK  24098.49983790  .00007042  00000+0  44945-3 0  9999
2 57199  97.6223 152.0936 0012153 358.7651   1.3546 15.08933774 42894
SITRO-AIS 9 (SHCHUKIN)  
1 57201U 23091AM  24098.49773789  .00007074  00000+0  45143-3 0  9994
2 57201  97.6219 152.0777 0012113 358.6379   1.4814 15.08938948 42895
SITRO-AIS 12 (SMIRENNIY)
1 57204U 23091AQ  24098.46871494  .00006330  00000+0  40254-3 0  9998
2 57204  97.6232 152.1526 0011859 354.2904   5.8187 15.09112168 42898
SITRO-AIS 11 (SHEFFER)  
1 57208U 23091AU  24098.45802948  .00006079  00000+0  38613-3 0  9995
2 57208  97.6227 152.1577 0011697 354.3150   5.7944 15.09173760 42891
SITRO-AIS B             
1 59052U 24039B   24098.53673819  .00016253  00000+0  67027-3 0  9995
2 59052  97.3867  61.3388 0022420 104.3645 256.0083 15.23907418  5824
SITRO-AIS C             
1 59053U 24039C   24098.53648834  .00016199  00000+0  66765-3 0  9992
2 59053  97.3866  61.3377 0022496 105.0760 255.2969 15.23926112  5816
SITRO-AIS 31            
1 59054U 24039D   24098.53448193  .00016049  00000+0  65981-3 0  9992
2 59054  97.3865  61.3403 0022328 105.1118 255.2592 15.24015265  5831
SITRO-AIS 33            
1 59055U 24039E   24098.53205452  .00016354  00000+0  67036-3 0  9994
2 59055  97.3867  61.3449 0022073 105.5055 254.8621 15.24116869  5824
SITRO-AIS F             
1 59056U 24039F   24098.53051907  .00016390  00000+0  67099-3 0  9998
2 59056  97.3867  61.3463 0021873 105.6369 254.7284 15.24162876  5820
SITRO-AIS G             
1 59057U 24039G   24098.53192231  .00016373  00000+0  67153-3 0  9997
2 59057  97.3867  61.3446 0021814 105.7762 254.5883 15.24102615  5823
SITRO-AIS 35            
1 59058U 24039H   24098.53118573  .00015491  00000+0  63454-3 0  9995
2 59058  97.3868  61.3467 0021996 105.7220 254.6445 15.24153463  5820
SITRO-AIS 36            
1 59059U 24039J   24098.52888953  .00015965  00000+0  65262-3 0  9996
2 59059  97.3867  61.3488 0021551 105.7026 254.6591 15.24225601  5820
SITRO-AIS 49            
1 59060U 24039K   24098.52828307  .00016645  00000+0  67977-3 0  9996
2 59060  97.3867  61.3495 0021519 105.7107 254.6507 15.24249338  5824
SITRO-AIS 50            
1 59061U 24039L   24098.52681535  .00016326  00000+0  66501-3 0  9995
2 59061  97.3867  61.3515 0021541 105.6961 254.6655 15.24340762  5827
SITRO-AIS 51            
1 59062U 24039M   24098.52607865  .00016224  00000+0  66038-3 0  9992
2 59062  97.3867  61.3526 0021453 105.6036 254.7571 15.24367920  5828
SITRO-AIS 52            
1 59063U 24039N   24098.52420410  .00017103  00000+0  69442-3 0  9991
2 59063  97.3867  61.3550 0021271 105.4219 254.9371 15.24443147  5821
SITRO-AIS 25            
1 59066U 24039R   24098.52843530  .00003249  00000+0  32111-3 0  9995
2 59066  95.3980  49.5635 0172899 225.2930 133.4100 14.81727129  5642
SITRO-AIS 26            
1 59067U 24039S   24098.52791538  .00003055  00000+0  30221-3 0  9991
2 59067  95.3979  49.5637 0172681 225.3235 133.3806 14.81740352  5646
SITRO-AIS 27            
1 59068U 24039T   24098.52516125  .00003166  00000+0  31232-3 0  9995
2 59068  95.3982  49.5675 0172448 225.2047 133.5043 14.81858947  5649
SITRO-AIS 28            
1 59071U 24039U   24098.52422799  .00003073  00000+0  30310-3 0  9995
2 59071  95.3982  49.5689 0172307 225.2031 133.5071 14.81893014  5640
BEIJING 1               
1 28890U 05043A   24098.54285742  .00000470  00000+0  10271-3 0  9993
2 28890  98.1885 221.9625 0013708 267.0483  92.9150 14.62217149983579
HJ-1A                   
1 33320U 08041A   24098.50042952  .00001577  00000+0  21694-3 0  9998
2 33320  97.6348 109.0174 0018989 239.6032 120.3303 14.79515327839907
HJ-1B                   
1 33321U 08041B   24098.52132245  .00001147  00000+0  15684-3 0  9991
2 33321  97.6309 113.5751 0036983 287.7079  72.0098 14.79944816839920
YAOGAN 4                
1 33446U 08061A   24098.35510571  .00001499  00000+0  20743-3 0  9996
2 33446  97.8759  31.6160 0015815 151.0310 209.1782 14.79405267827084
DEIMOS-1                
1 35681U 09041A   24098.49205369  .00000727  00000+0  12005-3 0  9994
2 35681  97.6801 284.2133 0000414 179.0824 181.0386 14.73136077788907
UK-DMC 2                
1 35683U 09041C   24098.49763944  .00001145  00000+0  18548-3 0  9997
2 35683  97.7704 249.1076 0001115  87.4203 272.7133 14.73036390788602
RISAT 1                 
1 38248U 12017A   24098.32602477  .00009160  00000+0  40367-3 0  9998
2 38248  97.5290 115.5595 0004840 119.9832 240.1885 15.22026757658812
DMC3-FM1                
1 40715U 15032A   24098.48143453  .00000777  00000+0  10085-3 0  9990
2 40715  97.7605 339.4387 0006313 151.3839 208.7722 14.83462594471098
DMC3-FM2                
1 40716U 15032B   24098.50453783  .00000811  00000+0  10494-3 0  9997
2 40716  97.7657 340.4837 0008080 158.6927 201.4625 14.83466057471099
DMC3-FM3                
1 40717U 15032C   24098.52694058  .00000664  00000+0  87067-4 0  9999
2 40717  97.7703 341.7437 0009610 157.2868 202.8773 14.83438886471101
NOAA 15                 
1 25338U 98030A   24098.53733662  .00000224  00000+0  11086-3 0  9995
2 25338  98.5763 127.1189 0010725 165.2312 194.9184 14.26529112347367
DMSP 5D-3 F16 (USA 172) 
1 28054U 03048A   24098.47891179  .00000190  00000+0  12387-3 0  9996
2 28054  99.0231 104.2812 0006200 250.3981 264.7954 14.13985327 56280
NOAA 18                 
1 28654U 05018A   24098.47793347  .00000249  00000+0  15675-3 0  9997
2 28654  98.8765 176.0270 0013207 262.3824  97.5848 14.13161622973279
METEOSAT-9 (MSG-2)      
1 28912U 05049B   24098.51867274  .00000123  00000+0  00000+0 0  9997
2 28912   7.5255  61.4413 0001555 319.9776  47.2736  1.00269709 67056
EWS-G1 (GOES 13)        
1 29155U 06018A   24098.44546163 -.00000236  00000+0  00000+0 0  9993
2 29155   2.4408  86.0730 0087601 252.8203 184.1087  0.99158454 65465
DMSP 5D-3 F17 (USA 191) 
1 29522U 06050A   24098.51942066  .00000210  00000+0  13221-3 0  9991
2 29522  98.7478 110.5467 0010127 174.4098 185.7190 14.14432034899208
